GLOBAL-2                
1 43812U 18099BG  26191.08876811  .00001788  00000+0  11744-3 0  9996
2 43812  97.3551 226.6497 0007678  81.0751 279.1347 15.08809515415360
GLOBAL-4                
1 44499U 19054E   26191.11304018  .00050072  00000+0  46569-3 0  9992
2 44499  45.0010 103.9034 0004429 154.8461 205.2653 15.66674455383950
GLOBAL-9                
1 47971U 21023G   26190.98256114  .00016735  00000+0  32520-3 0  9996
2 47971  44.9804 122.3181 0002789 131.1716 228.9415 15.47463869298477
GLOBAL-14               
1 49469U 21106A   26191.33009269  .00019295  00000+0  31887-3 0  9998
2 49469  42.0022 153.4283 0016888 191.3088 168.7379 15.51660276261729
GLOBAL-12               
1 49772U 21115BA  26191.60722477  .00027333  00000+0  40417-3 0  9999
2 49772  53.1957 291.8070 0002676  67.4277 292.7018 15.55134134259548
GLOBAL-13               
1 49773U 21115BB  26191.77262883  .00014585  00000+0  29226-3 0  9998
2 49773  53.1978 302.3911 0001107 154.7411 205.3652 15.46995782259416
GLOBAL-17               
1 49949U 21120A   26191.69233622  .00021474  00000+0  33147-3 0  9991
2 49949  41.9947 269.1012 0013539  55.8829 304.3299 15.53557273258558
GLOBAL-16               
1 49950U 21120B   26191.67393308  .00018892  00000+0  31687-3 0  9996
2 49950  41.9952 273.3944 0011813  44.6913 315.4881 15.51339852258492
GLOBAL-18               
1 52196U 22034B   26191.25869793  .00015344  00000+0  30602-3 0  9992
2 52196  52.9800 146.3065 0004308  11.3992 348.7110 15.47079635240539
GLOBAL-19               
1 55982U 23041B   26190.95267241  .00009716  00000+0  25562-3 0  9998
2 55982  42.0016  69.0757 0008779 183.2971 176.7812 15.38589343185432
GLOBAL-5                
1 55983U 23041C   26191.82925536  .00008499  00000+0  22434-3 0  9996
2 55983  42.0016  63.4867 0007806 185.3038 174.7720 15.38619065185576
